NORAD_CAT_ID,OBJECT_NAME,OBJECT_TYPE,EPOCH,MEAN_MOTION,ECCENTRICITY,INCLINATION,RA_OF_ASC_NODE,ARG_OF_PERICENTER,MEAN_ANOMALY,BSTAR,MEAN_MOTION_DOT,MEAN_MOTION_DDOT,TLE_LINE0,TLE_LINE1,TLE_LINE2,SEMIMAJOR_AXIS,PERIOD,APOGEE,PERIGEE,DECAYED
53266.0,STARLINK-4058,PAYLOAD,2023-02-08 18:32:57,15.08844852,0.0001416,53.218,204.068,87.9438,272.1716,3.6308e-05,2.9e-06,0.0,0 STARLINK-4058,1 53266U 22086AA  23039.77288535  .00000290  00000-0  36308-4 0  9997,2 53266  53.2180 204.0680 0001416  87.9438 272.1716 15.08844852 31065,6917.866,95.437,540.71,538.751,0.0
53266.0,STARLINK-4058,PAYLOAD,2023-02-09 10:26:49,15.08836024,0.0001265,53.2166,201.0933,81.977,278.1365,6.9698e-05,8.21e-06,0.0,0 STARLINK-4058,1 53266U 22086AA  23040.43529075  .00000821  00000-0  69698-4 0  9997,2 53266  53.2166 201.0933 0001265  81.9770 278.1365 15.08836024 31341,6917.893,95.438,540.633,538.882,0.0
53266.0,STARLINK-4058,PAYLOAD,2023-02-10 15:03:46,15.08833004,0.0001254,53.218,195.742,84.5181,275.5954,4.2172e-05,3.83e-06,0.0,0 STARLINK-4058,1 53266U 22086AA  23041.62761812  .00000383  00000-0  42172-4 0  9997,2 53266  53.2180 195.7420 0001254  84.5181 275.5954 15.08833004 31340,6917.902,95.438,540.634,538.899,0.0
53266.0,STARLINK-4058,PAYLOAD,2023-02-10 16:39:09,15.0883688,0.0001181,53.2176,195.4441,87.5331,272.5796,1.6847e-05,-2e-07,0.0,0 STARLINK-4058,1 53266U 22086AA  23041.69385628 -.00000020  00000-0  16847-4 0  9990,2 53266  53.2176 195.4441 0001181  87.5331 272.5796 15.08836880 31531,6917.89,95.438,540.572,538.938,0.0
53266.0,STARLINK-4058,PAYLOAD,2023-02-10 21:25:17,15.08848079,9.9e-05,53.2169,194.5515,86.878,273.2325,0.00011306,1.512e-05,0.0,0 STARLINK-4058,1 53266U 22086AA  23041.89256604  .00001512  00000-0  11306-3 0  9993,2 53266  53.2169 194.5515 0000990  86.8780 273.2325 15.08848079 31384,6917.856,95.437,540.406,539.036,0.0
53266.0,STARLINK-4058,PAYLOAD,2023-02-11 11:43:45,15.08846061,9.53e-05,53.2162,191.8761,83.0673,277.0427,0.00014382,2.002e-05,0.0,0 STARLINK-4058,1 53266U 22086AA  23042.48872533  .00002002  00000-0  14382-3 0  9996,2 53266  53.2162 191.8761 0000953  83.0673 277.0427 15.08846061 31653,6917.862,95.437,540.386,539.068,0.0
53266.0,STARLINK-4058,PAYLOAD,2023-02-11 19:40:41,15.08862021,0.0001135,53.2171,190.3897,83.2116,276.9006,0.00017231,2.457e-05,0.0,0 STARLINK-4058,1 53266U 22086AA  23042.81992044  .00002457  00000-0  17231-3 0  9993,2 53266  53.2171 190.3897 0001135  83.2116 276.9006 15.08862021 31705,6917.813,95.436,540.463,538.893,0.0
53266.0,STARLINK-4058,PAYLOAD,2023-02-12 11:34:34,15.08838419,0.0001271,53.2166,187.4163,86.1282,273.9855,-1.418e-05,-5.14e-06,0.0,0 STARLINK-4058,1 53266U 22086AA  23043.48233855 -.00000514  00000-0 -14180-4 0  9990,2 53266  53.2166 187.4163 0001271  86.1282 273.9855 15.08838419 31623,6917.885,95.438,540.629,538.871,0.0
53266.0,STARLINK-4058,PAYLOAD,2023-02-12 19:31:29,15.08847699,0.0001142,53.2176,185.9294,92.4227,267.6896,4.7449e-05,4.68e-06,0.0,0 STARLINK-4058,1 53266U 22086AA  23043.81353026  .00000468  00000-0  47449-4 0  9990,2 53266  53.2176 185.9294 0001142  92.4227 267.6896 15.08847699 31678,6917.857,95.437,540.512,538.932,0.0
53266.0,STARLINK-4058,PAYLOAD,2023-02-13 01:53:02,15.088372,0.0001331,53.217,184.7408,96.797,263.3173,8.897e-06,-1.46e-06,0.0,0 STARLINK-4058,1 53266U 22086AA  23044.07849892 -.00000146  00000-0  88970-5 0  9999,2 53266  53.2170 184.7408 0001331  96.7970 263.3173 15.08837200 31711,6917.889,95.438,540.675,538.833,0.0
53266.0,STARLINK-4058,PAYLOAD,2023-02-13 11:25:20,15.08844972,0.0001348,53.2176,182.9556,89.7819,270.3327,-5.1423e-05,-1.106e-05,0.0,0 STARLINK-4058,1 53266U 22086AA  23044.47593658 -.00001106  00000-0 -51423-4 0  9999,2 53266  53.2176 182.9556 0001348  89.7819 270.3327 15.08844972 31952,6917.865,95.437,540.663,538.798,0.0
53266.0,STARLINK-4058,PAYLOAD,2023-02-13 17:46:52,15.08850427,0.0001427,53.2169,181.7676,87.3086,272.8069,5.6016e-05,6.04e-06,0.0,0 STARLINK-4058,1 53266U 22086AA  23044.74088984  .00000604  00000-0  56016-4 0  9993,2 53266  53.2169 181.7676 0001427  87.3086 272.8069 15.08850427 31819,6917.849,95.437,540.701,538.726,0.0
53266.0,STARLINK-4058,PAYLOAD,2023-02-14 01:43:48,15.08840926,0.0001329,53.2141,180.2806,89.8955,270.2189,-8.3958e-05,-1.624e-05,0.0,0 STARLINK-4058,1 53266U 22086AA  23045.07209247 -.00001624  00000-0 -83958-4 0  9997,2 53266  53.2141 180.2806 0001329  89.8955 270.2189 15.08840926 31864,6917.878,95.437,540.662,538.823,0.0
53266.0,STARLINK-4058,PAYLOAD,2023-02-14 19:13:03,15.08846834,0.0001476,53.2163,177.0075,86.9295,273.1866,0.00021458,3.129e-05,0.0,0 STARLINK-4058,1 53266U 22086AA  23045.80073245  .00003129  00000-0  21458-3 0  9991,2 53266  53.2163 177.0075 0001476  86.9295 273.1866 15.08846834 32159,6917.86,95.437,540.746,538.703,0.0
53266.0,STARLINK-4058,PAYLOAD,2023-02-15 11:06:55,15.08839259,0.000158,53.2169,174.0366,80.1606,279.9565,7.8906e-05,9.68e-06,0.0,0 STARLINK-4058,1 53266U 22086AA  23046.46313660  .00000968  00000-0  78906-4 0  9991,2 53266  53.2169 174.0366 0001580  80.1606 279.9565 15.08839259 32077,6917.883,95.438,540.841,538.655,0.0
53266.0,STARLINK-4058,PAYLOAD,2023-02-15 12:42:17,15.08847947,0.0001495,53.2175,173.7386,93.4086,266.7077,0.00020325,2.949e-05,0.0,0 STARLINK-4058,1 53266U 22086AA  23046.52937273  .00002949  00000-0  20325-3 0  9992,2 53266  53.2175 173.7386 0001495  93.4086 266.7077 15.08847947 32262,6917.856,95.437,540.755,538.687,0.0
53266.0,STARLINK-4058,PAYLOAD,2023-02-15 20:39:11,15.08877914,8.57e-05,53.2163,172.2478,123.5316,236.5758,0.0005039,7.749e-05,0.0,0 STARLINK-4058,1 53266U 22086AA  23046.86055235  .00007749  00000-0  50390-3 0  9996,2 53266  53.2163 172.2478 0000857 123.5316 236.5758 15.08877914 32131,6917.765,95.435,540.222,539.037,0.0
53266.0,STARLINK-4058,PAYLOAD,2023-02-16 14:08:26,15.08862621,0.0001315,53.2174,168.9816,94.4692,265.645,0.0003411,5.148e-05,0.0,0 STARLINK-4058,1 53266U 22086AA  23047.58920012  .00005148  00000-0  34110-3 0  9993,2 53266  53.2174 168.9816 0001315  94.4692 265.6450 15.08862621 32247,6917.811,95.436,540.586,538.767,0.0
53266.0,STARLINK-4058,PAYLOAD,2023-02-16 17:19:12,15.08876862,0.0001484,53.2169,168.3858,77.7809,282.3349,0.00054918,8.472e-05,0.0,0 STARLINK-4058,1 53266U 22086AA  23047.72167081  .00008472  00000-0  54918-3 0  9999,2 53266  53.2169 168.3858 0001484  77.7809 282.3349 15.08876862 32269,6917.768,95.435,540.659,538.606,0.0
53266.0,STARLINK-4058,PAYLOAD,2023-02-17 13:59:15,15.08832885,0.0001406,53.2182,164.5223,92.8978,267.2175,-4.7182e-05,-1.039e-05,0.0,0 STARLINK-4058,1 53266U 22086AA  23048.58281428 -.00001039  00000-0 -47182-4 0  9996,2 53266  53.2182 164.5223 0001406  92.8978 267.2175 15.08832885 32397,6917.902,95.438,540.74,538.794,0.0
53266.0,STARLINK-4058,PAYLOAD,2023-02-17 17:10:00,15.08839518,0.0001457,53.2166,163.9249,98.3287,261.7871,-5.6362e-05,-1.185e-05,0.0,0 STARLINK-4058,1 53266U 22086AA  23048.71528853 -.00001185  00000-0 -56362-4 0  9999,2 53266  53.2166 163.9249 0001457  98.3287 261.7871 15.08839518 32415,6917.882,95.438,540.755,538.739,0.0
53266.0,STARLINK-4058,PAYLOAD,2023-02-17 18:45:23,15.08841205,0.0001251,53.2162,163.6273,96.5329,263.5806,-2.3298e-06,-3.25e-06,0.0,0 STARLINK-4058,1 53266U 22086AA  23048.78152757 -.00000325  00000-0 -23298-5 0  9990,2 53266  53.2162 163.6273 0001251  96.5329 263.5806 15.08841205 32609,6917.877,95.437,540.607,538.876,0.0
53266.0,STARLINK-4058,PAYLOAD,2023-02-18 10:39:16,15.0882269,0.0001563,53.2167,160.6535,99.1623,260.9546,-0.00028343,-4.794e-05,0.0,0 STARLINK-4058,1 53266U 22086AA  23049.44394261 -.00004794  00000-0 -28343-3 0  9990,2 53266  53.2167 160.6535 0001563  99.1623 260.9546 15.08822690 32524,6917.933,95.439,540.88,538.717,0.0
53266.0,STARLINK-4058,PAYLOAD,2023-02-18 13:50:02,15.08828843,0.0001525,53.2164,160.0593,93.7563,266.3604,-5.5333e-05,-1.168e-05,0.0,0 STARLINK-4058,1 53266U 22086AA  23049.57642245 -.00001168  00000-0 -55333-4 0  9994,2 53266  53.2164 160.0593 0001525  93.7563 266.3604 15.08828843 32723,6917.914,95.438,540.834,538.725,0.0
53266.0,STARLINK-4058,PAYLOAD,2023-02-18 18:36:12,15.08834987,0.0001543,53.2173,159.169,94.158,265.9589,0.00077304,0.00012035,0.0,0 STARLINK-4058,1 53266U 22086AA  23049.77514690  .00012035  00000-0  77304-3 0  9992,2 53266  53.2173 159.1690 0001543  94.1580 265.9589 15.08834987 32570,6917.896,95.438,540.828,538.693,0.0
53266.0,STARLINK-4058,PAYLOAD,2023-02-19 13:40:50,15.08858616,0.0001682,53.2174,155.5997,92.5666,267.5518,0.0011035,0.00017327,0.0,0 STARLINK-4058,1 53266U 22086AA  23050.57002632  .00017327  00000-0  11035-2 0  9997,2 53266  53.2174 155.5997 0001682  92.5666 267.5518 15.08858616 32870,6917.823,95.436,540.852,538.525,0.0
53266.0,STARLINK-4058,PAYLOAD,2023-02-19 18:26:59,15.08879479,0.0001527,53.2172,154.7075,82.4757,277.6409,0.0020612,0.00032704,0.0,0 STARLINK-4058,1 53266U 22086AA  23050.76874220  .00032704  00000-0  20612-2 0  9995,2 53266  53.2172 154.7075 0001527  82.4757 277.6409 15.08879479 32728,6917.76,95.435,540.681,538.568,0.0
53266.0,STARLINK-4058,PAYLOAD,2023-02-20 13:31:37,15.08853336,0.0001356,53.2178,151.1398,91.3728,268.7419,0.0010753,0.00016873,0.0,0 STARLINK-4058,1 53266U 22086AA  23051.56362299  .00016873  00000-0  10753-2 0  9996,2 53266  53.2178 151.1398 0001356  91.3728 268.7419 15.08853336 32849,6917.84,95.437,540.643,538.767,0.0
53266.0,STARLINK-4058,PAYLOAD,2023-02-20 18:17:46,15.08873921,0.0001367,53.2172,150.2469,89.9774,270.1375,0.0015732,0.00024861,0.0,0 STARLINK-4058,1 53266U 22086AA  23051.76233869  .00024861  00000-0  15732-2 0  9996,2 53266  53.2172 150.2469 0001367  89.9774 270.1375 15.08873921 32871,6917.777,95.435,540.587,538.696,0.0
53266.0,STARLINK-4058,PAYLOAD,2023-02-21 05:25:28,15.08846493,0.000273,53.2161,148.1618,94.7618,265.3686,0.0010853,0.0001703,0.0,0 STARLINK-4058,1 53266U 22086AA  23052.22602579  .00017030  00000-0  10853-2 0  9995,2 53266  53.2161 148.1618 0002730  94.7618 265.3686 15.08846493 32940,6917.861,95.437,541.614,537.837,0.0
